YAOGAN-50 02            
1 68196U 26051A   26093.63337896  .00000270  00000+0  75671-4 0  9997
2 68196 141.9860 327.5519 0000729 270.3976  89.6660 13.83260666  2665
CZ-6A R/B               
1 68197U 26051B   26093.19361518  .00001467  00000+0  20476-3 0  9998
2 68197 142.0308 335.7384 0187227 227.5866 130.8884 14.56382634  2733
2026-052A               
1 68198U 26052A   26093.97251679  .00014016  00000+0  86250-3 0  9998
2 68198  97.5355 169.9198 0013593 196.9946 163.0830 15.10051079  2840
YUXING-3 06             
1 68199U 26052B   26093.97058793  .00010394  00000+0  63875-3 0  9994
2 68199  97.5356 169.9217 0012601 198.2419 161.8360 15.10185609  2844
2026-052C               
1 68200U 26052C   26093.96899976  .00008962  00000+0  54978-3 0  9994
2 68200  97.5354 169.9245 0012212 200.9325 159.1406 15.10298625  2834
2026-052D               
1 68201U 26052D   26093.96666834  .00014238  00000+0  86468-3 0  9992
2 68201  97.5353 169.9248 0011577 197.3528 162.7308 15.10548264  2843
2026-052E               
1 68202U 26052E   26093.96665081  .00013590  00000+0  82570-3 0  9996
2 68202  97.5351 169.9267 0011358 201.4705 158.6050 15.10545745  2843
2026-052F               
1 68203U 26052F   26093.96350250  .00014654  00000+0  88376-3 0  9998
2 68203  97.5349 169.9337 0010671 193.6536 166.4407 15.10805391  2849
2026-052G               
1 68204U 26052G   26093.96290443  .00014646  00000+0  88226-3 0  9991
2 68204  97.5361 169.9305 0010192 196.4517 163.6384 15.10851293  2842
KZ-11 R/B               
1 68205U 26052H   26093.97295630  .00033186  20648-5  49702-3 0  9998
2 68205  97.3402 168.7034 0544036 312.0185  43.5894 14.67620947  2763
2026-052J               
1 68206U 26052J   26093.96479904  .00109555  37611-5  15932-2 0  9995
2 68206  97.3399 168.7123 0538199 312.0168  43.6381 14.69189906  2761
STARLINK-36986          
1 68207U 26053A   26093.86415443  .00235729  00000+0  11963-2 0  9993
2 68207  97.2835 329.3975 0001710  56.3235 303.8196 15.80856027  4039
