CCSDS_OMM_VERS = 2.0
CREATION_DATE  = 
ORIGINATOR     = 

OBJECT_NAME    = YAOGAN-50 02
OBJECT_ID      = 2026-051A
CENTER_NAME    = EARTH
REF_FRAME      = TEME
TIME_SYSTEM    = UTC
MEAN_ELEMENT_THEORY = SGP/SGP4

EPOCH          = 2026-04-03T15:12:03.942144
MEAN_MOTION    = 13.83260666
ECCENTRICITY   = .00007295
INCLINATION    = 141.9860
RA_OF_ASC_NODE = 327.5519
ARG_OF_PERICENTER = 270.3976
MEAN_ANOMALY   = 89.6660

EPHEMERIS_TYPE = 0
CLASSIFICATION_TYPE = U
NORAD_CAT_ID   = 68196
ELEMENT_SET_NO = 999
REV_AT_EPOCH   = 266
BSTAR          = .75670531E-4
MEAN_MOTION_DOT = .27E-5
MEAN_MOTION_DDOT = 0

CCSDS_OMM_VERS = 2.0
CREATION_DATE  = 
ORIGINATOR     = 

OBJECT_NAME    = CZ-6A R/B
OBJECT_ID      = 2026-051B
CENTER_NAME    = EARTH
REF_FRAME      = TEME
TIME_SYSTEM    = UTC
MEAN_ELEMENT_THEORY = SGP/SGP4

EPOCH          = 2026-04-03T04:38:48.351552
MEAN_MOTION    = 14.56382634
ECCENTRICITY   = .01872276
INCLINATION    = 142.0308
RA_OF_ASC_NODE = 335.7384
ARG_OF_PERICENTER = 227.5866
MEAN_ANOMALY   = 130.8884

EPHEMERIS_TYPE = 0
CLASSIFICATION_TYPE = U
NORAD_CAT_ID   = 68197
ELEMENT_SET_NO = 999
REV_AT_EPOCH   = 273
BSTAR          = .20476333E-3
MEAN_MOTION_DOT = .1467E-4
MEAN_MOTION_DDOT = 0

CCSDS_OMM_VERS = 2.0
CREATION_DATE  = 
ORIGINATOR     = 

OBJECT_NAME    = 2026-052A
OBJECT_ID      = 2026-052A
CENTER_NAME    = EARTH
REF_FRAME      = TEME
TIME_SYSTEM    = UTC
MEAN_ELEMENT_THEORY = SGP/SGP4

EPOCH          = 2026-04-03T23:20:25.450656
MEAN_MOTION    = 15.10051079
ECCENTRICITY   = .00135939
INCLINATION    = 97.5355
RA_OF_ASC_NODE = 169.9198
ARG_OF_PERICENTER = 196.9946
MEAN_ANOMALY   = 163.0830

EPHEMERIS_TYPE = 0
CLASSIFICATION_TYPE = U
NORAD_CAT_ID   = 68198
ELEMENT_SET_NO = 999
REV_AT_EPOCH   = 284
BSTAR          = .86249713E-3
MEAN_MOTION_DOT = .14016E-3
MEAN_MOTION_DDOT = 0

CCSDS_OMM_VERS = 2.0
CREATION_DATE  = 
ORIGINATOR     = 

OBJECT_NAME    = YUXING-3 06
OBJECT_ID      = 2026-052B
CENTER_NAME    = EARTH
REF_FRAME      = TEME
TIME_SYSTEM    = UTC
MEAN_ELEMENT_THEORY = SGP/SGP4

EPOCH          = 2026-04-03T23:17:38.797152
MEAN_MOTION    = 15.10185609
ECCENTRICITY   = .00126016
INCLINATION    = 97.5356
RA_OF_ASC_NODE = 169.9217
ARG_OF_PERICENTER = 198.2419
MEAN_ANOMALY   = 161.8360

EPHEMERIS_TYPE = 0
CLASSIFICATION_TYPE = U
NORAD_CAT_ID   = 68199
ELEMENT_SET_NO = 999
REV_AT_EPOCH   = 284
BSTAR          = .63875031E-3
MEAN_MOTION_DOT = .10394E-3
MEAN_MOTION_DDOT = 0

CCSDS_OMM_VERS = 2.0
CREATION_DATE  = 
ORIGINATOR     = 

OBJECT_NAME    = 2026-052C
OBJECT_ID      = 2026-052C
CENTER_NAME    = EARTH
REF_FRAME      = TEME
TIME_SYSTEM    = UTC
MEAN_ELEMENT_THEORY = SGP/SGP4

EPOCH          = 2026-04-03T23:15:21.579264
MEAN_MOTION    = 15.10298625
ECCENTRICITY   = .00122123
INCLINATION    = 97.5354
RA_OF_ASC_NODE = 169.9245
ARG_OF_PERICENTER = 200.9325
MEAN_ANOMALY   = 159.1406

EPHEMERIS_TYPE = 0
CLASSIFICATION_TYPE = U
NORAD_CAT_ID   = 68200
ELEMENT_SET_NO = 999
REV_AT_EPOCH   = 283
BSTAR          = .54977544E-3
MEAN_MOTION_DOT = .8962E-4
MEAN_MOTION_DDOT = 0

CCSDS_OMM_VERS = 2.0
CREATION_DATE  = 
ORIGINATOR     = 

OBJECT_NAME    = 2026-052D
OBJECT_ID      = 2026-052D
CENTER_NAME    = EARTH
REF_FRAME      = TEME
TIME_SYSTEM    = UTC
MEAN_ELEMENT_THEORY = SGP/SGP4

EPOCH          = 2026-04-03T23:12:00.144576
MEAN_MOTION    = 15.10548264
ECCENTRICITY   = .00115779
INCLINATION    = 97.5353
RA_OF_ASC_NODE = 169.9248
ARG_OF_PERICENTER = 197.3528
MEAN_ANOMALY   = 162.7308

EPHEMERIS_TYPE = 0
CLASSIFICATION_TYPE = U
NORAD_CAT_ID   = 68201
ELEMENT_SET_NO = 999
REV_AT_EPOCH   = 284
BSTAR          = .86467895E-3
MEAN_MOTION_DOT = .14238E-3
MEAN_MOTION_DDOT = 0

CCSDS_OMM_VERS = 2.0
CREATION_DATE  = 
ORIGINATOR     = 

OBJECT_NAME    = 2026-052E
OBJECT_ID      = 2026-052E
CENTER_NAME    = EARTH
REF_FRAME      = TEME
TIME_SYSTEM    = UTC
MEAN_ELEMENT_THEORY = SGP/SGP4

EPOCH          = 2026-04-03T23:11:58.629984
MEAN_MOTION    = 15.10545745
ECCENTRICITY   = .00113583
INCLINATION    = 97.5351
RA_OF_ASC_NODE = 169.9267
ARG_OF_PERICENTER = 201.4705
MEAN_ANOMALY   = 158.6050

EPHEMERIS_TYPE = 0
CLASSIFICATION_TYPE = U
NORAD_CAT_ID   = 68202
ELEMENT_SET_NO = 999
REV_AT_EPOCH   = 284
BSTAR          = .82570447E-3
MEAN_MOTION_DOT = .1359E-3
MEAN_MOTION_DDOT = 0

CCSDS_OMM_VERS = 2.0
CREATION_DATE  = 
ORIGINATOR     = 

OBJECT_NAME    = 2026-052F
OBJECT_ID      = 2026-052F
CENTER_NAME    = EARTH
REF_FRAME      = TEME
TIME_SYSTEM    = UTC
MEAN_ELEMENT_THEORY = SGP/SGP4

EPOCH          = 2026-04-03T23:07:26.616000
MEAN_MOTION    = 15.10805391
ECCENTRICITY   = .00106712
INCLINATION    = 97.5349
RA_OF_ASC_NODE = 169.9337
ARG_OF_PERICENTER = 193.6536
MEAN_ANOMALY   = 166.4407

EPHEMERIS_TYPE = 0
CLASSIFICATION_TYPE = U
NORAD_CAT_ID   = 68203
ELEMENT_SET_NO = 999
REV_AT_EPOCH   = 284
BSTAR          = .88376473E-3
MEAN_MOTION_DOT = .14654E-3
MEAN_MOTION_DDOT = 0

CCSDS_OMM_VERS = 2.0
CREATION_DATE  = 
ORIGINATOR     = 

OBJECT_NAME    = 2026-052G
OBJECT_ID      = 2026-052G
CENTER_NAME    = EARTH
REF_FRAME      = TEME
TIME_SYSTEM    = UTC
MEAN_ELEMENT_THEORY = SGP/SGP4

EPOCH          = 2026-04-03T23:06:34.942752
MEAN_MOTION    = 15.10851293
ECCENTRICITY   = .00101921
INCLINATION    = 97.5361
RA_OF_ASC_NODE = 169.9305
ARG_OF_PERICENTER = 196.4517
MEAN_ANOMALY   = 163.6384

EPHEMERIS_TYPE = 0
CLASSIFICATION_TYPE = U
NORAD_CAT_ID   = 68204
ELEMENT_SET_NO = 999
REV_AT_EPOCH   = 284
BSTAR          = .88226392E-3
MEAN_MOTION_DOT = .14646E-3
MEAN_MOTION_DDOT = 0

CCSDS_OMM_VERS = 2.0
CREATION_DATE  = 
ORIGINATOR     = 

OBJECT_NAME    = KZ-11 R/B
OBJECT_ID      = 2026-052H
CENTER_NAME    = EARTH
REF_FRAME      = TEME
TIME_SYSTEM    = UTC
MEAN_ELEMENT_THEORY = SGP/SGP4

EPOCH          = 2026-04-03T23:21:03.424320
MEAN_MOTION    = 14.67620947
ECCENTRICITY   = .05440369
INCLINATION    = 97.3402
RA_OF_ASC_NODE = 168.7034
ARG_OF_PERICENTER = 312.0185
MEAN_ANOMALY   = 43.5894

EPHEMERIS_TYPE = 0
CLASSIFICATION_TYPE = U
NORAD_CAT_ID   = 68205
ELEMENT_SET_NO = 999
REV_AT_EPOCH   = 276
BSTAR          = .49702281E-3
MEAN_MOTION_DOT = .33186E-3
MEAN_MOTION_DDOT = .2064841E-5

CCSDS_OMM_VERS = 2.0
CREATION_DATE  = 
ORIGINATOR     = 

OBJECT_NAME    = 2026-052J
OBJECT_ID      = 2026-052J
CENTER_NAME    = EARTH
REF_FRAME      = TEME
TIME_SYSTEM    = UTC
MEAN_ELEMENT_THEORY = SGP/SGP4

EPOCH          = 2026-04-03T23:09:18.637056
MEAN_MOTION    = 14.69189906
ECCENTRICITY   = .05381995
INCLINATION    = 97.3399
RA_OF_ASC_NODE = 168.7123
ARG_OF_PERICENTER = 312.0168
MEAN_ANOMALY   = 43.6381

EPHEMERIS_TYPE = 0
CLASSIFICATION_TYPE = U
NORAD_CAT_ID   = 68206
ELEMENT_SET_NO = 999
REV_AT_EPOCH   = 276
BSTAR          = .15932266E-2
MEAN_MOTION_DOT = .109555E-2
MEAN_MOTION_DDOT = .3761118E-5

CCSDS_OMM_VERS = 2.0
CREATION_DATE  = 
ORIGINATOR     = 

OBJECT_NAME    = STARLINK-36986
OBJECT_ID      = 2026-053A
CENTER_NAME    = EARTH
REF_FRAME      = TEME
TIME_SYSTEM    = UTC
MEAN_ELEMENT_THEORY = SGP/SGP4

EPOCH          = 2026-04-03T20:44:22.942752
MEAN_MOTION    = 15.80856027
ECCENTRICITY   = .00017106
INCLINATION    = 97.2835
RA_OF_ASC_NODE = 329.3975
ARG_OF_PERICENTER = 56.3235
MEAN_ANOMALY   = 303.8196

EPHEMERIS_TYPE = 0
CLASSIFICATION_TYPE = U
NORAD_CAT_ID   = 68207
ELEMENT_SET_NO = 999
REV_AT_EPOCH   = 403
BSTAR          = .1196255E-2
MEAN_MOTION_DOT = .235729E-2
MEAN_MOTION_DDOT = 0

